$$SOE
2460728.500000000, A.D. 2025-Feb-22 00:00:00.0000, 2.032809905944794E+08, 3.601717298836728E+08, -3.816964870353195E+07,
2460735.500000000, A.D. 2025-Mar-01 00:00:00.0000, 1.934983444099131E+08, 3.654677693358765E+08, -3.981075256154674E+07,
2460742.500000000, A.D. 2025-Mar-08 00:00:00.0000, 1.835846372658267E+08, 3.705165755563865E+08, -4.142488184040034E+07,
2460749.500000000, A.D. 2025-Mar-15 00:00:00.0000, 1.735467012575751E+08, 3.753149748949921E+08, -4.301096865033889E+07,
2460756.500000000, A.D. 2025-Mar-22 00:00:00.0000, 1.633914580846947E+08, 3.798600132911580E+08, -4.456797060215937E+07,
2460763.500000000, A.D. 2025-Mar-29 00:00:00.0000, 1.531259097253725E+08, 3.841489570638909E+08, -4.609487200148661E+07,
2460770.500000000, A.D. 2025-Apr-05 00:00:00.0000, 1.427571307123284E+08, 3.881792941790203E+08, -4.759068507219261E+07,
2460777.500000000, A.D. 2025-Apr-12 00:00:00.0000, 1.322922601079745E+08, 3.919487360934282E+08, -4.905445102147402E+07,
2460784.500000000, A.D. 2025-Apr-19 00:00:00.0000, 1.217384930144255E+08, 3.954552192934643E+08, -5.048524099921058E+07,
2460791.500000000, A.D. 2025-Apr-26 00:00:00.0000, 1.111030719133029E+08, 3.986969063257113E+08, -5.188215699132538E+07,
2460798.500000000, A.D. 2025-May-03 00:00:00.0000, 1.003932779723904E+08, 4.016721863421271E+08, -5.324433265448835E+07,
2460805.500000000, A.D. 2025-May-10 00:00:00.0000, 8.961642237083171E+07, 4.043796751725225E+08, -5.457093409275058E+07,
2460812.500000000, A.D. 2025-May-17 00:00:00.0000, 7.877983770221101E+07, 4.068182148890525E+08, -5.586116058168159E+07,
2460819.500000000, A.D. 2025-May-24 00:00:00.0000, 6.789086965135668E+07, 4.089868728154857E+08, -5.711424525945620E+07,
2460826.500000000, A.D. 2025-May-31 00:00:00.0000, 5.695686938382923E+07, 4.108849403014866E+08, -5.832945579721622E+07,
2460833.500000000, A.D. 2025-Jun-07 00:00:00.0000, 4.598518626860164E+07, 4.125119324780455E+08, -5.950609491354430E+07,
2460840.500000000, A.D. 2025-Jun-14 00:00:00.0000, 3.498315859120873E+07, 4.138675883368326E+08, -6.064350057035273E+07,
2460847.500000000, A.D. 2025-Jun-21 00:00:00.0000, 2.395810349145734E+07, 4.149518678707305E+08, -6.174104622772139E+07,
2460854.500000000, A.D. 2025-Jun-28 00:00:00.0000, 1.291730926962556E+07, 4.157649480563797E+08, -6.279814130099452E+07,
2460861.500000000, A.D. 2025-Jul-05 00:00:00.0000, 1.868028563305179E+06, 4.163072198519586E+08, -6.381423150626406E+07,
2460868.500000000, A.D. 2025-Jul-12 00:00:00.0000, -9.182528779189022E+06, 4.165792854186857E+08, -6.478879905124460E+07,
2460875.500000000, A.D. 2025-Jul-19 00:00:00.0000, -2.022720292484939E+07, 4.165819550060021E+08, -6.572136273648252E+07,
2460882.500000000, A.D. 2025-Jul-26 00:00:00.0000, -3.125889115824095E+07, 4.163162434603783E+08, -6.661147799181384E+07,
2460889.500000000, A.D. 2025-Aug-02 00:00:00.0000, -4.227055478241295E+07, 4.157833663966686E+08, -6.745873685363659E+07,
2460896.500000000, A.D. 2025-Aug-09 00:00:00.0000, -5.325522578404769E+07, 4.149847360351901E+08, -6.826276788789792E+07,
2460903.500000000, A.D. 2025-Aug-16 00:00:00.0000, -6.420601317618325E+07, 4.139219566595178E+08, -6.902323607278642E+07,
2460910.500000000, A.D. 2025-Aug-23 00:00:00.0000, -7.511610871748556E+07, 4.125968197300556E+08, -6.973984266860557E+07,
2460917.500000000, A.D. 2025-Aug-30 00:00:00.0000, -8.597879167204969E+07, 4.110112993866746E+08, -7.041232504902826E+07,
2460924.500000000, A.D. 2025-Sep-06 00:00:00.0000, -9.678743402088825E+07, 4.091675493608385E+08, -7.104045628484850E+07,
2460931.500000000, A.D. 2025-Sep-13 00:00:00.0000, -1.075355077874134E+08, 4.070678988313657E+08, -7.162404453178269E+07,
2460938.500000000, A.D. 2025-Sep-20 00:00:00.0000, -1.182165911989630E+08, 4.047148455918824E+08, -7.216293265697549E+07,
2460945.500000000, A.D. 2025-Sep-27 00:00:00.0000, -1.288243726259783E+08, 4.021110496579369E+08, -7.265699794875425E+07,
2460952.500000000, A.D. 2025-Oct-04 00:00:00.0000, -1.393526543151610E+08, 3.992593278709078E+08, -7.310615168327880E+07,
2460959.500000000, A.D. 2025-Oct-11 00:00:00.0000, -1.497953562914207E+08, 3.961626485721034E+08, -7.351033859333025E+07,
2460966.500000000, A.D. 2025-Oct-18 00:00:00.0000, -1.601465201478907E+08, 3.928241260902345E+08, -7.386953629097357E+07,
2460973.500000000, A.D. 2025-Oct-25 00:00:00.0000, -1.704003125874016E+08, 3.892470150716799E+08, -7.418375465988380E+07,
2460980.500000000, A.D. 2025-Nov-01 00:00:00.0000, -1.805510286786357E+08, 3.854347046866035E+08, -7.445303522341958E+07,
2460987.500000000, A.D. 2025-Nov-08 00:00:00.0000, -1.905930947954754E+08, 3.813907126954651E+08, -7.467745049743195E+07,
2460994.500000000, A.D. 2025-Nov-15 00:00:00.0000, -2.005210710957393E+08, 3.771186793317953E+08, -7.485710334900516E+07,
2461001.500000000, A.D. 2025-Nov-22 00:00:00.0000, -2.103296531419830E+08, 3.726223612346262E+08, -7.499212638272661E+07,
2461008.500000000, A.D. 2025-Nov-29 00:00:00.0000, -2.200136728245817E+08, 3.679056265785555E+08, -7.508268125053585E+07,
2461015.500000000, A.D. 2025-Dec-06 00:00:00.0000, -2.295681008722122E+08, 3.629724512792892E+08, -7.512895769080082E+07,
2461022.500000000, A.D. 2025-Dec-13 00:00:00.0000, -2.389880505217263E+08, 3.578269129163789E+08, -7.513117261431026E+07,
2461029.500000000, A.D. 2025-Dec-20 00:00:00.0000, -2.482687788614449E+08, 3.524731834043375E+08, -7.508956947514798E+07,
2461036.500000000, A.D. 2025-Dec-27 00:00:00.0000, -2.574056869327191E+08, 3.469155230139512E+08, -7.500441761904570E+07,
2461043.500000000, A.D. 2026-Jan-03 00:00:00.0000, -2.663943200583428E+08, 3.411582751403913E+08, -7.487601152891934E+07,
2461050.500000000, A.D. 2026-Jan-10 00:00:00.0000, -2.752303682961243E+08, 3.352058611490889E+08, -7.470467003522930E+07,
2461057.500000000, A.D. 2026-Jan-17 00:00:00.0000, -2.839096667936530E+08, 3.290627752163050E+08, -7.449073552166320E+07,
2461064.500000000, A.D. 2026-Jan-24 00:00:00.0000, -2.924281959752324E+08, 3.227335791949598E+08, -7.423457313300669E+07,
2461071.500000000, A.D. 2026-Jan-31 00:00:00.0000, -3.007820815464862E+08, 3.162228975054364E+08, -7.393656998935550E+07,
2461078.500000000, A.D. 2026-Feb-07 00:00:00.0000, -3.089675942641590E+08, 3.095354120001702E+08, -7.359713441819704E+07,
2461085.500000000, A.D. 2026-Feb-14 00:00:00.0000, -3.169811492273441E+08, 3.026758567918625E+08, -7.321669522991134E+07,
2461092.500000000, A.D. 2026-Feb-21 00:00:00.0000, -3.248193043124083E+08, 2.956490136265537E+08, -7.279570102620161E+07,
2461099.500000000, A.D. 2026-Feb-28 00:00:00.0000, -3.324787588474386E+08, 2.884597089589641E+08, -7.233461934924707E+07,
2461106.500000000, A.D. 2026-Mar-07 00:00:00.0000, -3.399563545961424E+08, 2.811128107851469E+08, -7.183393564431745E+07,
2461113.500000000, A.D. 2026-Mar-14 00:00:00.0000, -3.472490762839478E+08, 2.736132229039484E+08, -7.129415248232439E+07,
2461120.500000000, A.D. 2026-Mar-21 00:00:00.0000, -3.543540498913892E+08, 2.659658795059377E+08, -7.071578896919474E+07,
2461127.500000000, A.D. 2026-Mar-28 00:00:00.0000, -3.612685407350824E+08, 2.581757411198899E+08, -7.009938007507032E+07,
2461134.500000000, A.D. 2026-Apr-04 00:00:00.0000, -3.679899519499128E+08, 2.502477909541045E+08, -6.944547590842187E+07,
2461141.500000000, A.D. 2026-Apr-11 00:00:00.0000, -3.745158231066093E+08, 2.421870312741700E+08, -6.875464099028058E+07,
2461148.500000000, A.D. 2026-Apr-18 00:00:00.0000, -3.808438288131945E+08, 2.339984798107013E+08, -6.802745354407242E+07,
2461155.500000000, A.D. 2026-Apr-25 00:00:00.0000, -3.869717772622948E+08, 2.256871662114336E+08, -6.726450480439964E+07,
2461162.500000000, A.D. 2026-May-02 00:00:00.0000, -3.928976087012848E+08, 2.172581285075337E+08, -6.646639835039486E+07,
2461169.500000000, A.D. 2026-May-09 00:00:00.0000, -3.986193937079899E+08, 2.087164095272706E+08, -6.563374948086660E+07,
2461176.500000000, A.D. 2026-May-16 00:00:00.0000, -4.041353309006975E+08, 2.000670533946103E+08, -6.476718465485784E+07,
2461183.500000000, A.D. 2026-May-23 00:00:00.0000, -4.094437440366279E+08, 1.913151031338801E+08, -6.386734091887593E+07,
2461190.500000000, A.D. 2026-May-30 00:00:00.0000, -4.145430805833072E+08, 1.824655996983182E+08, -6.293486510411333E+07,
2461197.500000000, A.D. 2026-Jun-06 00:00:00.0000, -4.194319120860978E+08, 1.735235791475537E+08, -6.197041303225756E+07,
2461204.500000000, A.D. 2026-Jun-13 00:00:00.0000, -4.241089326694311E+08, 1.644940681705545E+08, -6.097464904920812E+07,
2461211.500000000, A.D. 2026-Jun-20 00:00:00.0000, -4.285729561765410E+08, 1.553820808747295E+08, -5.994824560086019E+07,
2461218.500000000, A.D. 2026-Jun-27 00:00:00.0000, -4.328229136537694E+08, 1.461926164964971E+08, -5.889188272380659E+07,
2461225.500000000, A.D. 2026-Jul-04 00:00:00.0000, -4.368578511878898E+08, 1.369306572563940E+08, -5.780624751575828E+07,
2461232.500000000, A.D. 2026-Jul-11 00:00:00.0000, -4.406769278489321E+08, 1.276011662256370E+08, -5.669203362069322E+07,
2461239.500000000, A.D. 2026-Jul-18 00:00:00.0000, -4.442794136506649E+08, 1.182090852282442E+08, -5.554994073551037E+07,
2461246.500000000, A.D. 2026-Jul-25 00:00:00.0000, -4.476646875082978E+08, 1.087593327791658E+08, -5.438067414023141E+07,
2461253.500000000, A.D. 2026-Aug-01 00:00:00.0000, -4.508322351488488E+08, 9.925680200749913E+07, -5.318494425992687E+07,
2461260.500000000, A.D. 2026-Aug-08 00:00:00.0000, -4.537816467625588E+08, 8.970635852577236E+07, -5.196346628073531E+07,
2461267.500000000, A.D. 2026-Aug-15 00:00:00.0000, -4.565126139832866E+08, 8.011283869232790E+07, -5.071695982088527E+07,
2461274.500000000, A.D. 2026-Aug-22 00:00:00.0000, -4.590249269617984E+08, 7.048104948438919E+07, -4.944614848675606E+07,
2461281.500000000, A.D. 2026-Aug-29 00:00:00.0000, -4.613184738248598E+08, 6.081576860524682E+07, -4.815175921615916E+07,
2461288.500000000, A.D. 2026-Sep-05 00:00:00.0000, -4.633932403909005E+08, 5.112174195482456E+07, -4.683452183901787E+07,
2461295.500000000, A.D. 2026-Sep-12 00:00:00.0000, -4.652493076891215E+08, 4.140368095722810E+07, -4.549516887602337E+07,
$$EOE